start=new Date('2022-05-25T00:00:00.000Z').valueOf();
sats=[{"OBJECT_NAME":"STARLINK-2335","ELEMENT_SET_NO":"999","RCS_SIZE":"LARGE","MEAN_ELEMENT_THEORY":"SGP4","PERIOD":"95.592","INCLINATION":"53.0566","DECAY_DATE":null,"CLASSIFICATION_TYPE":"U","NORAD_CAT_ID":"47878","APOAPSIS":"548.648","MEAN_MOTION":"15.06396021","TLE_LINE1":"1 47878U 21021U   22144.89894028 -.00000312  00000-0 -20283-5 0  9999","RA_OF_ASC_NODE":"8.1927","GP_ID":"204454752","TLE_LINE2":"2 47878  53.0566   8.1927 0002053  39.6400 320.4739 15.06396021 67262","LAUNCH_DATE":"2021-03-14","OBJECT_TYPE":"PAYLOAD","FILE":"3462783","MEAN_MOTION_DOT":"-0.00000312","ARG_OF_PERICENTER":"39.6400","REF_FRAME":"TEME","ECCENTRICITY":"0.00020530","MEAN_MOTION_DDOT":"0.0000000000000","REV_AT_EPOCH":"6726","EPHEMERIS_TYPE":"0","EPOCH":"2022-05-24T21:34:28.440192","OBJECT_ID":"2021-021U","PERIAPSIS":"545.804","CENTER_NAME":"EARTH","MEAN_ANOMALY":"320.4739","SEMIMAJOR_AXIS":"6925.361","BSTAR":"-0.00000202830000","TIME_SYSTEM":"UTC","SITE":"AFETR","COUNTRY_CODE":"US"},{"FILE":"3462783","MEAN_MOTION_DOT":"0.00001811","ARG_OF_PERICENTER":"54.3976","REF_FRAME":"TEME","ECCENTRICITY":"0.00017960","MEAN_MOTION_DDOT":"0.0000000000000","REV_AT_EPOCH":"6743","EPHEMERIS_TYPE":"0","EPOCH":"2022-05-24T21:29:49.851168","OBJECT_ID":"2021-021V","PERIAPSIS":"546.022","CENTER_NAME":"EARTH","MEAN_ANOMALY":"305.7180","SEMIMAJOR_AXIS":"6925.400","BSTAR":"0.00014052000000","TIME_SYSTEM":"UTC","SITE":"AFETR","COUNTRY_CODE":"US","OBJECT_NAME":"STARLINK-2336","ELEMENT_SET_NO":"999","RCS_SIZE":"LARGE","MEAN_ELEMENT_THEORY":"SGP4","PERIOD":"95.593","INCLINATION":"53.0571","DECAY_DATE":null,"CLASSIFICATION_TYPE":"U","NORAD_CAT_ID":"47879","APOAPSIS":"548.509","TLE_LINE1":"1 47879U 21021V   22144.89571587  .00001811  00000-0  14052-3 0  9990","MEAN_MOTION":"15.06383073","RA_OF_ASC_NODE":"23.2136","GP_ID":"204454996","TLE_LINE2":"2 47879  53.0571  23.2136 0001796  54.3976 305.7180 15.06383073 67432","LAUNCH_DATE":"2021-03-14","OBJECT_TYPE":"PAYLOAD"},{"DECAY_DATE":null,"INCLINATION":"53.0576","RCS_SIZE":"LARGE","PERIOD":"95.593","MEAN_ELEMENT_THEORY":"SGP4","ELEMENT_SET_NO":"999","OBJECT_NAME":"STARLINK-2337","APOAPSIS":"548.815","NORAD_CAT_ID":"47880","CLASSIFICATION_TYPE":"U","RA_OF_ASC_NODE":"18.3236","GP_ID":"204454250","MEAN_MOTION":"15.06389595","TLE_LINE1":"1 47880U 21021W   22144.86853180  .00000749  00000-0  69222-4 0  9990","OBJECT_TYPE":"PAYLOAD","LAUNCH_DATE":"2021-03-14","TLE_LINE2":"2 47880  53.0576  18.3236 0002267  43.0467 317.0699 15.06389595 67323","REF_FRAME":"TEME","MEAN_MOTION_DOT":"0.00000749","ARG_OF_PERICENTER":"43.0467","FILE":"3462783","PERIAPSIS":"545.675","EPHEMERIS_TYPE":"0","OBJECT_ID":"2021-021W","EPOCH":"2022-05-24T20:50:41.147520","REV_AT_EPOCH":"6732","ECCENTRICITY":"0.00022670","MEAN_MOTION_DDOT":"0.0000000000000","TIME_SYSTEM":"UTC","BSTAR":"0.00006922200000","SEMIMAJOR_AXIS":"6925.380","CENTER_NAME":"EARTH","MEAN_ANOMALY":"317.0699","COUNTRY_CODE":"US","SITE":"AFETR"},{"TLE_LINE1":"1 47881U 21021X   22144.89432805  .00000660  00000-0  63239-4 0  9995","MEAN_MOTION":"15.06393659","GP_ID":"204454500","RA_OF_ASC_NODE":"18.2189","TLE_LINE2":"2 47881  53.0548  18.2189 0001442  58.5682 301.5448 15.06393659 67295","LAUNCH_DATE":"2021-03-14","OBJECT_TYPE":"PAYLOAD","OBJECT_NAME":"STARLINK-2339","ELEMENT_SET_NO":"999","MEAN_ELEMENT_THEORY":"SGP4","PERIOD":"95.593","RCS_SIZE":"LARGE","INCLINATION":"53.0548","DECAY_DATE":null,"CLASSIFICATION_TYPE":"U","NORAD_CAT_ID":"47881","APOAPSIS":"548.232","MEAN_ANOMALY":"301.5448","CENTER_NAME":"EARTH","SEMIMAJOR_AXIS":"6925.368","BSTAR":"0.00006323900000","TIME_SYSTEM":"UTC","SITE":"AFETR","COUNTRY_CODE":"US","FILE":"3462783","ARG_OF_PERICENTER":"58.5682","MEAN_MOTION_DOT":"0.00000660","REF_FRAME":"TEME","MEAN_MOTION_DDOT":"0.0000000000000","ECCENTRICITY":"0.00014420","REV_AT_EPOCH":"6729","OBJECT_ID":"2021-021X","EPOCH":"2022-05-24T21:27:49.943520","EPHEMERIS_TYPE":"0","PERIAPSIS":"546.234"},{"RCS_SIZE":"LARGE","PERIOD":"95.593","MEAN_ELEMENT_THEORY":"SGP4","DECAY_DATE":null,"INCLINATION":"53.0579","OBJECT_NAME":"STARLINK-2340","ELEMENT_SET_NO":"999","NORAD_CAT_ID":"47882","APOAPSIS":"548.323","CLASSIFICATION_TYPE":"U","MEAN_MOTION":"15.06389066","TLE_LINE1":"1 47882U 21021Y   22144.86945857  .00003331  00000-0  24249-3 0  9994","RA_OF_ASC_NODE":"8.3248","GP_ID":"204455251","TLE_LINE2":"2 47882  53.0579   8.3248 0001554  74.8238 285.2923 15.06389066 67639","LAUNCH_DATE":"2021-03-14","OBJECT_TYPE":"PAYLOAD","REF_FRAME":"TEME","FILE":"3462783","ARG_OF_PERICENTER":"74.8238","MEAN_MOTION_DOT":"0.00003331","EPHEMERIS_TYPE":"0","OBJECT_ID":"2021-021Y","EPOCH":"2022-05-24T20:52:01.220448","PERIAPSIS":"546.171","ECCENTRICITY":"0.00015540","MEAN_MOTION_DDOT":"0.0000000000000","REV_AT_EPOCH":"6763","BSTAR":"0.00024249000000","TIME_SYSTEM":"UTC","CENTER_NAME":"EARTH","MEAN_ANOMALY":"285.2923","SEMIMAJOR_AXIS":"6925.382","SITE":"AFETR","COUNTRY_CODE":"US"},{"SITE":"AFETR","COUNTRY_CODE":"US","CENTER_NAME":"EARTH","MEAN_ANOMALY":"296.4031","SEMIMAJOR_AXIS":"6925.367","BSTAR":"0.00006549600000","TIME_SYSTEM":"UTC","ECCENTRICITY":"0.00015570","MEAN_MOTION_DDOT":"0.0000000000000","REV_AT_EPOCH":"6757","EPHEMERIS_TYPE":"0","EPOCH":"2022-05-24T21:47:04.388352","OBJECT_ID":"2021-021Z","PERIAPSIS":"546.153","FILE":"3462783","ARG_OF_PERICENTER":"63.7118","MEAN_MOTION_DOT":"0.00000694","REF_FRAME":"TEME","TLE_LINE2":"2 47883  53.0565  13.1504 0001557  63.7118 296.4031 15.06394126 67571","LAUNCH_DATE":"2021-03-14","OBJECT_TYPE":"PAYLOAD","MEAN_MOTION":"15.06394126","TLE_LINE1":"1 47883U 21021Z   22144.90768968  .00000694  00000-0  65496-4 0  9995","RA_OF_ASC_NODE":"13.1504","GP_ID":"204455495","CLASSIFICATION_TYPE":"U","NORAD_CAT_ID":"47883","APOAPSIS":"548.310","OBJECT_NAME":"STARLINK-2342","ELEMENT_SET_NO":"999","RCS_SIZE":"LARGE","MEAN_ELEMENT_THEORY":"SGP4","PERIOD":"95.593","DECAY_DATE":null,"INCLINATION":"53.0565"},{"CLASSIFICATION_TYPE":"U","APOAPSIS":"548.231","NORAD_CAT_ID":"47884","ELEMENT_SET_NO":"999","OBJECT_NAME":"STARLINK-2343","INCLINATION":"53.0552","DECAY_DATE":null,"MEAN_ELEMENT_THEORY":"SGP4","PERIOD":"95.593","RCS_SIZE":"LARGE","LAUNCH_DATE":"2021-03-14","OBJECT_TYPE":"PAYLOAD","TLE_LINE2":"2 47884  53.0552  18.2332 0001400  48.9003 311.2106 15.06384480 67322","GP_ID":"204453751","RA_OF_ASC_NODE":"18.2332","TLE_LINE1":"1 47884U 21021AA  22144.89064060  .00002393  00000-0  17957-3 0  9992","MEAN_MOTION":"15.06384480","REV_AT_EPOCH":"6732","MEAN_MOTION_DDOT":"0.0000000000000","ECCENTRICITY":"0.00014000","PERIAPSIS":"546.292","OBJECT_ID":"2021-021AA","EPOCH":"2022-05-24T21:22:31.347840","EPHEMERIS_TYPE":"0","ARG_OF_PERICENTER":"48.9003","MEAN_MOTION_DOT":"0.00002393","FILE":"3462783","REF_FRAME":"TEME","COUNTRY_CODE":"US","SITE":"AFETR","SEMIMAJOR_AXIS":"6925.396","MEAN_ANOMALY":"311.2106","CENTER_NAME":"EARTH","TIME_SYSTEM":"UTC","BSTAR":"0.00017957000000"},{"SEMIMAJOR_AXIS":"6925.283","MEAN_ANOMALY":"300.0659","CENTER_NAME":"EARTH","TIME_SYSTEM":"UTC","BSTAR":"-0.00041784000000","COUNTRY_CODE":"US","SITE":"AFETR","ARG_OF_PERICENTER":"60.0467","MEAN_MOTION_DOT":"-0.00006503","FILE":"3462783","REF_FRAME":"TEME","REV_AT_EPOCH":"6741","MEAN_MOTION_DDOT":"0.0000000000000","ECCENTRICITY":"0.00013800","PERIAPSIS":"546.192","EPOCH":"2022-05-24T21:13:53.007456","OBJECT_ID":"2021-021AB","EPHEMERIS_TYPE":"0","GP_ID":"204454001","RA_OF_ASC_NODE":"23.2486","MEAN_MOTION":"15.06421349","TLE_LINE1":"1 47885U 21021AB  22144.88464129 -.00006503  00000-0 -41784-3 0  9996","OBJECT_TYPE":"PAYLOAD","LAUNCH_DATE":"2021-03-14","TLE_LINE2":"2 47885  53.0564  23.2486 0001380  60.0467 300.0659 15.06421349 67413","ELEMENT_SET_NO":"999","OBJECT_NAME":"STARLINK-2344","INCLINATION":"53.0564","DECAY_DATE":null,"MEAN_ELEMENT_THEORY":"SGP4","PERIOD":"95.591","RCS_SIZE":"LARGE","CLASSIFICATION_TYPE":"U","APOAPSIS":"548.104","NORAD_CAT_ID":"47885"},{"REF_FRAME":"TEME","FILE":"3462783","MEAN_MOTION_DOT":"0.00000211","ARG_OF_PERICENTER":"46.5751","EPHEMERIS_TYPE":"0","EPOCH":"2022-05-24T21:13:52.700736","OBJECT_ID":"2021-021AC","PERIAPSIS":"545.970","ECCENTRICITY":"0.00018560","MEAN_MOTION_DDOT":"0.0000000000000","REV_AT_EPOCH":"6740","BSTAR":"0.00003305900000","TIME_SYSTEM":"UTC","CENTER_NAME":"EARTH","MEAN_ANOMALY":"313.5392","SEMIMAJOR_AXIS":"6925.391","SITE":"AFETR","COUNTRY_CODE":"US","RCS_SIZE":"LARGE","PERIOD":"95.593","MEAN_ELEMENT_THEORY":"SGP4","DECAY_DATE":null,"INCLINATION":"53.0578","OBJECT_NAME":"STARLINK-2345","ELEMENT_SET_NO":"999","NORAD_CAT_ID":"47886","APOAPSIS":"548.541","CLASSIFICATION_TYPE":"U","TLE_LINE1":"1 47886U 21021AC  22144.88463774  .00000211  00000-0  33059-4 0  9997","MEAN_MOTION":"15.06386302","RA_OF_ASC_NODE":"13.2635","GP_ID":"204454753","TLE_LINE2":"2 47886  53.0578  13.2635 0001856  46.5751 313.5392 15.06386302 67408","LAUNCH_DATE":"2021-03-14","OBJECT_TYPE":"PAYLOAD"},{"REV_AT_EPOCH":"6733","ECCENTRICITY":"0.00015980","MEAN_MOTION_DDOT":"0.0000000000000","PERIAPSIS":"546.097","EPHEMERIS_TYPE":"0","EPOCH":"2022-05-24T21:49:04.240704","OBJECT_ID":"2021-021AD","ARG_OF_PERICENTER":"69.3595","MEAN_MOTION_DOT":"0.00006173","FILE":"3462783","REF_FRAME":"TEME","COUNTRY_CODE":"US","SITE":"AFETR","SEMIMAJOR_AXIS":"6925.338","CENTER_NAME":"EARTH","MEAN_ANOMALY":"290.7566","TIME_SYSTEM":"UTC","BSTAR":"0.00043290000000","CLASSIFICATION_TYPE":"U","APOAPSIS":"548.310","NORAD_CAT_ID":"47887","ELEMENT_SET_NO":"999","OBJECT_NAME":"STARLINK-2346","DECAY_DATE":null,"INCLINATION":"53.0547","RCS_SIZE":"LARGE","PERIOD":"95.592","MEAN_ELEMENT_THEORY":"SGP4","OBJECT_TYPE":"PAYLOAD","LAUNCH_DATE":"2021-03-14","TLE_LINE2":"2 47887  53.0547  18.1309 0001598  69.3595 290.7566 15.06403345 67337","RA_OF_ASC_NODE":"18.1309","GP_ID":"204454997","MEAN_MOTION":"15.06403345","TLE_LINE1":"1 47887U 21021AD  22144.90907686  .00006173  00000-0  43290-3 0  9996"}];
